[{"OBJECT_NAME":"ONEWEB-0427","OBJECT_ID":"2021-132AG","EPOCH":"2025-07-30T13:25:50.392992","MEAN_MOTION":13.18686325,"ECCENTRICITY":0.0001631,"INCLINATION":87.9122,"RA_OF_ASC_NODE":39.3219,"ARG_OF_PERICENTER":93.7674,"MEAN_ANOMALY":266.3644,"EPHEMERIS_TYPE":0,"CLASSIFICATION_TYPE":"U","NORAD_CAT_ID":50499,"ELEMENT_SET_NO":999,"REV_AT_EPOCH":18052,"BSTAR":7.9417e-5,"MEAN_MOTION_DOT":4.4e-7,"MEAN_MOTION_DDOT":0},{"OBJECT_NAME":"ONEWEB-0429","OBJECT_ID":"2021-132AH","EPOCH":"2025-07-30T02:11:16.427904","MEAN_MOTION":13.18685384,"ECCENTRICITY":0.0001909,"INCLINATION":87.9125,"RA_OF_ASC_NODE":39.4441,"ARG_OF_PERICENTER":85.3812,"MEAN_ANOMALY":274.7539,"EPHEMERIS_TYPE":0,"CLASSIFICATION_TYPE":"U","NORAD_CAT_ID":50500,"ELEMENT_SET_NO":999,"REV_AT_EPOCH":18042,"BSTAR":-0.00014793,"MEAN_MOTION_DOT":-4.5e-7,"MEAN_MOTION_DDOT":0},{"OBJECT_NAME":"ONEWEB-0430","OBJECT_ID":"2021-132AJ","EPOCH":"2025-07-30T01:54:38.113056","MEAN_MOTION":13.18688505,"ECCENTRICITY":0.0001712,"INCLINATION":87.9125,"RA_OF_ASC_NODE":39.4404,"ARG_OF_PERICENTER":79.9712,"MEAN_ANOMALY":280.1613,"EPHEMERIS_TYPE":0,"CLASSIFICATION_TYPE":"U","NORAD_CAT_ID":50501,"ELEMENT_SET_NO":999,"REV_AT_EPOCH":18046,"BSTAR":-7.9375e-5,"MEAN_MOTION_DOT":-1.8e-7,"MEAN_MOTION_DDOT":0},{"OBJECT_NAME":"ONEWEB-0432","OBJECT_ID":"2021-132AK","EPOCH":"2025-07-29T19:23:03.743808","MEAN_MOTION":13.18687902,"ECCENTRICITY":8.93e-5,"INCLINATION":87.9117,"RA_OF_ASC_NODE":39.4767,"ARG_OF_PERICENTER":93.1477,"MEAN_ANOMALY":266.9758,"EPHEMERIS_TYPE":0,"CLASSIFICATION_TYPE":"U","NORAD_CAT_ID":50502,"ELEMENT_SET_NO":999,"REV_AT_EPOCH":17909,"BSTAR":0.00011877,"MEAN_MOTION_DOT":6.0e-7,"MEAN_MOTION_DDOT":0},{"OBJECT_NAME":"ONEWEB-0440","OBJECT_ID":"2021-132AL","EPOCH":"2025-07-30T13:18:44.006400","MEAN_MOTION":13.18686331,"ECCENTRICITY":0.0002229,"INCLINATION":87.9128,"RA_OF_ASC_NODE":39.3347,"ARG_OF_PERICENTER":90.8809,"MEAN_ANOMALY":269.2578,"EPHEMERIS_TYPE":0,"CLASSIFICATION_TYPE":"U","NORAD_CAT_ID":50503,"ELEMENT_SET_NO":999,"REV_AT_EPOCH":18047,"BSTAR":0.00019482,"MEAN_MOTION_DOT":9.0e-7,"MEAN_MOTION_DDOT":0},{"OBJECT_NAME":"ONEWEB-0450","OBJECT_ID":"2021-132AM","EPOCH":"2025-07-29T22:35:20.189760","MEAN_MOTION":13.18685333,"ECCENTRICITY":0.0001956,"INCLINATION":87.9124,"RA_OF_ASC_NODE":39.4833,"ARG_OF_PERICENTER":80.902,"MEAN_ANOMALY":279.2333,"EPHEMERIS_TYPE":0,"CLASSIFICATION_TYPE":"U","NORAD_CAT_ID":50504,"ELEMENT_SET_NO":999,"REV_AT_EPOCH":17913,"BSTAR":0.00019114,"MEAN_MOTION_DOT":8.8e-7,"MEAN_MOTION_DDOT":0},{"OBJECT_NAME":"ONEWEB-0410","OBJECT_ID":"2022-012A","EPOCH":"2025-07-30T04:07:39.232704","MEAN_MOTION":13.17651801,"ECCENTRICITY":0.0001522,"INCLINATION":87.9046,"RA_OF_ASC_NODE":69.9315,"ARG_OF_PERICENTER":135.9838,"MEAN_ANOMALY":224.1414,"EPHEMERIS_TYPE":0,"CLASSIFICATION_TYPE":"U","NORAD_CAT_ID":51622,"ELEMENT_SET_NO":999,"REV_AT_EPOCH":17258,"BSTAR":4.8136e-5,"MEAN_MOTION_DOT":3.2e-7,"MEAN_MOTION_DDOT":0},{"OBJECT_NAME":"ONEWEB-0411","OBJECT_ID":"2022-012B","EPOCH":"2025-07-30T09:29:06.302112","MEAN_MOTION":13.10369795,"ECCENTRICITY":0.0001735,"INCLINATION":87.8799,"RA_OF_ASC_NODE":100.4501,"ARG_OF_PERICENTER":58.1476,"MEAN_ANOMALY":301.982,"EPHEMERIS_TYPE":0,"CLASSIFICATION_TYPE":"U","NORAD_CAT_ID":51623,"ELEMENT_SET_NO":999,"REV_AT_EPOCH":16842,"BSTAR":-0.00019992,"MEAN_MOTION_DOT":-5.7e-7,"MEAN_MOTION_DDOT":0},{"OBJECT_NAME":"ONEWEB-0415","OBJECT_ID":"2022-012C","EPOCH":"2025-07-29T16:54:43.862112","MEAN_MOTION":13.10369042,"ECCENTRICITY":0.0001721,"INCLINATION":87.8797,"RA_OF_ASC_NODE":100.591,"ARG_OF_PERICENTER":66.9739,"MEAN_ANOMALY":293.157,"EPHEMERIS_TYPE":0,"CLASSIFICATION_TYPE":"U","NORAD_CAT_ID":51624,"ELEMENT_SET_NO":999,"REV_AT_EPOCH":16705,"BSTAR":-0.00026437,"MEAN_MOTION_DOT":-8.0e-7,"MEAN_MOTION_DDOT":0},{"OBJECT_NAME":"ONEWEB-0416","OBJECT_ID":"2022-012D","EPOCH":"2025-07-30T04:11:10.795200","MEAN_MOTION":13.10370596,"ECCENTRICITY":0.0001754,"INCLINATION":87.8803,"RA_OF_ASC_NODE":100.516,"ARG_OF_PERICENTER":77.3121,"MEAN_ANOMALY":282.8202,"EPHEMERIS_TYPE":0,"CLASSIFICATION_TYPE":"U","NORAD_CAT_ID":51625,"ELEMENT_SET_NO":999,"REV_AT_EPOCH":16844,"BSTAR":-0.0014281,"MEAN_MOTION_DOT":-4.86e-6,"MEAN_MOTION_DDOT":0},{"OBJECT_NAME":"ONEWEB-0422","OBJECT_ID":"2022-012E","EPOCH":"2025-07-30T00:43:31.684512","MEAN_MOTION":13.17650296,"ECCENTRICITY":0.0002482,"INCLINATION":87.9043,"RA_OF_ASC_NODE":69.9662,"ARG_OF_PERICENTER":76.9342,"MEAN_ANOMALY":283.2066,"EPHEMERIS_TYPE":0,"CLASSIFICATION_TYPE":"U","NORAD_CAT_ID":51626,"ELEMENT_SET_NO":999,"REV_AT_EPOCH":17266,"BSTAR":4.5365e-5,"MEAN_MOTION_DOT":3.1e-7,"MEAN_MOTION_DDOT":0},{"OBJECT_NAME":"ONEWEB-0423","OBJECT_ID":"2022-012F","EPOCH":"2025-07-30T04:12:30.341088","MEAN_MOTION":13.17650055,"ECCENTRICITY":0.0001876,"INCLINATION":87.9043,"RA_OF_ASC_NODE":69.9454,"ARG_OF_PERICENTER":84.8972,"MEAN_ANOMALY":275.2374,"EPHEMERIS_TYPE":0,"CLASSIFICATION_TYPE":"U","NORAD_CAT_ID":51627,"ELEMENT_SET_NO":999,"REV_AT_EPOCH":17258,"BSTAR":-4.336e-5,"MEAN_MOTION_DOT":-4.0e-8,"MEAN_MOTION_DDOT":0},{"OBJECT_NAME":"ONEWEB-0425","OBJECT_ID":"2022-012G","EPOCH":"2025-07-30T04:25:31.035072","MEAN_MOTION":13.10373502,"ECCENTRICITY":0.0001728,"INCLINATION":87.8804,"RA_OF_ASC_NODE":100.4836,"ARG_OF_PERICENTER":87.8703,"MEAN_ANOMALY":272.2622,"EPHEMERIS_TYPE":0,"CLASSIFICATION_TYPE":"U","NORAD_CAT_ID":51628,"ELEMENT_SET_NO":999,"REV_AT_EPOCH":16844,"BSTAR":-0.0019505,"MEAN_MOTION_DOT":-6.68e-6,"MEAN_MOTION_DDOT":0},{"OBJECT_NAME":"ONEWEB-0428","OBJECT_ID":"2022-012H","EPOCH":"2025-07-30T09:26:43.044864","MEAN_MOTION":13.10370267,"ECCENTRICITY":0.0001945,"INCLINATION":87.8798,"RA_OF_ASC_NODE":100.4636,"ARG_OF_PERICENTER":73.412,"MEAN_ANOMALY":286.7221,"EPHEMERIS_TYPE":0,"CLASSIFICATION_TYPE":"U","NORAD_CAT_ID":51629,"ELEMENT_SET_NO":999,"REV_AT_EPOCH":16842,"BSTAR":0.00015269,"MEAN_MOTION_DOT":6.6e-7,"MEAN_MOTION_DDOT":0},{"OBJECT_NAME":"ONEWEB-0431","OBJECT_ID":"2022-012J","EPOCH":"2025-07-30T05:03:35.289504","MEAN_MOTION":13.10376408,"ECCENTRICITY":0.0002032,"INCLINATION":87.8806,"RA_OF_ASC_NODE":100.47,"ARG_OF_PERICENTER":60.0749,"MEAN_ANOMALY":300.058,"EPHEMERIS_TYPE":0,"CLASSIFICATION_TYPE":"U","NORAD_CAT_ID":51630,"ELEMENT_SET_NO":999,"REV_AT_EPOCH":16846,"BSTAR":0.0013672,"MEAN_MOTION_DOT":4.9e-6,"MEAN_MOTION_DDOT":0},{"OBJECT_NAME":"ONEWEB-0434","OBJECT_ID":"2022-012K","EPOCH":"2025-07-29T15:40:36.775488","MEAN_MOTION":13.10374695,"ECCENTRICITY":0.0001755,"INCLINATION":87.8808,"RA_OF_ASC_NODE":100.6241,"ARG_OF_PERICENTER":98.3449,"MEAN_ANOMALY":261.7877,"EPHEMERIS_TYPE":0,"CLASSIFICATION_TYPE":"U","NORAD_CAT_ID":51631,"ELEMENT_SET_NO":999,"REV_AT_EPOCH":16708,"BSTAR":-0.0017823,"MEAN_MOTION_DOT":-6.09e-6,"MEAN_MOTION_DDOT":0},{"OBJECT_NAME":"ONEWEB-0435","OBJECT_ID":"2022-012L","EPOCH":"2025-07-29T23:12:23.336064","MEAN_MOTION":13.10376556,"ECCENTRICITY":0.0002219,"INCLINATION":87.8807,"RA_OF_ASC_NODE":100.5544,"ARG_OF_PERICENTER":73.598,"MEAN_ANOMALY":286.5391,"EPHEMERIS_TYPE":0,"CLASSIFICATION_TYPE":"U","NORAD_CAT_ID":51632,"ELEMENT_SET_NO":999,"REV_AT_EPOCH":16711,"BSTAR":-0.00068323,"MEAN_MOTION_DOT":-2.26e-6,"MEAN_MOTION_DDOT":0},{"OBJECT_NAME":"ONEWEB-0436","OBJECT_ID":"2022-012M","EPOCH":"2025-07-29T20:42:57.313440","MEAN_MOTION":13.17648211,"ECCENTRICITY":0.0001939,"INCLINATION":87.9031,"RA_OF_ASC_NODE":69.9932,"ARG_OF_PERICENTER":77.657,"MEAN_ANOMALY":282.4779,"EPHEMERIS_TYPE":0,"CLASSIFICATION_TYPE":"U","NORAD_CAT_ID":51633,"ELEMENT_SET_NO":999,"REV_AT_EPOCH":17123,"BSTAR":-0.00018106,"MEAN_MOTION_DOT":-5.7e-7,"MEAN_MOTION_DDOT":0},{"OBJECT_NAME":"ONEWEB-0438","OBJECT_ID":"2022-012N","EPOCH":"2025-07-29T17:18:37.034208","MEAN_MOTION":13.10371898,"ECCENTRICITY":0.000175,"INCLINATION":87.8803,"RA_OF_ASC_NODE":100.6038,"ARG_OF_PERICENTER":82.6666,"MEAN_ANOMALY":277.466,"EPHEMERIS_TYPE":0,"CLASSIFICATION_TYPE":"U","NORAD_CAT_ID":51634,"ELEMENT_SET_NO":999,"REV_AT_EPOCH":16711,"BSTAR":-0.0019607,"MEAN_MOTION_DOT":-6.72e-6,"MEAN_MOTION_DDOT":0},{"OBJECT_NAME":"ONEWEB-0439","OBJECT_ID":"2022-012P","EPOCH":"2025-07-30T09:52:59.269440","MEAN_MOTION":13.10372613,"ECCENTRICITY":0.0001871,"INCLINATION":87.8807,"RA_OF_ASC_NODE":100.4545,"ARG_OF_PERICENTER":77.8857,"MEAN_ANOMALY":282.248,"EPHEMERIS_TYPE":0,"CLASSIFICATION_TYPE":"U","NORAD_CAT_ID":51635,"ELEMENT_SET_NO":999,"REV_AT_EPOCH":16846,"BSTAR":-0.0016869,"MEAN_MOTION_DOT":-5.76e-6,"MEAN_MOTION_DDOT":0},{"OBJECT_NAME":"ONEWEB-0442","OBJECT_ID":"2022-012Q","EPOCH":"2025-07-30T12:56:10.161600","MEAN_MOTION":13.17649804,"ECCENTRICITY":0.0001336,"INCLINATION":87.9037,"RA_OF_ASC_NODE":69.9115,"ARG_OF_PERICENTER":101.3707,"MEAN_ANOMALY":258.7575,"EPHEMERIS_TYPE":0,"CLASSIFICATION_TYPE":"U","NORAD_CAT_ID":51636,"ELEMENT_SET_NO":999,"REV_AT_EPOCH":17260,"BSTAR":1.4098e-5,"MEAN_MOTION_DOT":1.8e-7,"MEAN_MOTION_DDOT":0},{"OBJECT_NAME":"ONEWEB-0443","OBJECT_ID":"2022-012R","EPOCH":"2025-07-30T04:17:21.999840","MEAN_MOTION":13.1765051,"ECCENTRICITY":0.0001926,"INCLINATION":87.903,"RA_OF_ASC_NODE":69.9932,"ARG_OF_PERICENTER":92.7331,"MEAN_ANOMALY":267.4021,"EPHEMERIS_TYPE":0,"CLASSIFICATION_TYPE":"U","NORAD_CAT_ID":51637,"ELEMENT_SET_NO":999,"REV_AT_EPOCH":17260,"BSTAR":0.00017133,"MEAN_MOTION_DOT":7.9e-7,"MEAN_MOTION_DDOT":0},{"OBJECT_NAME":"ONEWEB-0444","OBJECT_ID":"2022-012S","EPOCH":"2025-07-29T17:09:03.836736","MEAN_MOTION":13.10370707,"ECCENTRICITY":0.0001973,"INCLINATION":87.88,"RA_OF_ASC_NODE":100.5946,"ARG_OF_PERICENTER":78.6851,"MEAN_ANOMALY":281.4498,"EPHEMERIS_TYPE":0,"CLASSIFICATION_TYPE":"U","NORAD_CAT_ID":51638,"ELEMENT_SET_NO":999,"REV_AT_EPOCH":16710,"BSTAR":-0.0015269,"MEAN_MOTION_DOT":-5.2e-6,"MEAN_MOTION_DDOT":0},{"OBJECT_NAME":"ONEWEB-0445","OBJECT_ID":"2022-012T","EPOCH":"2025-07-30T04:39:50.812704","MEAN_MOTION":13.10374287,"ECCENTRICITY":0.0001642,"INCLINATION":87.88,"RA_OF_ASC_NODE":100.4519,"ARG_OF_PERICENTER":76.1759,"MEAN_ANOMALY":283.955,"EPHEMERIS_TYPE":0,"CLASSIFICATION_TYPE":"U","NORAD_CAT_ID":51639,"ELEMENT_SET_NO":999,"REV_AT_EPOCH":16845,"BSTAR":-0.0011043,"MEAN_MOTION_DOT":-3.73e-6,"MEAN_MOTION_DDOT":0}]
